{
  "norad_id": 53548,
  "name": "STARLINK-4513",
  "history": [
    {
      "epoch": "2026-03-28T22:52:44.102208Z",
      "apogee_km": 540.6369726191106,
      "perigee_km": 538.8286414515514,
      "latitude_deg": 1.7054701370562925e-05,
      "longitude_deg": 168.0944137879048,
      "height_km": 540.5931331297436,
      "semi_major_axis_km": 6917.869807035331,
      "eccentricity": 0.0001307,
      "inclination_deg": 53.2181,
      "raan_deg": 337.6445,
      "arg_perigee_deg": 87.748,
      "mean_anomaly_deg": 272.3662,
      "mean_motion_rev_day": 15.08843462
    }
  ]
}