{"fetched_at":"2026-03-30T13:17:50Z","count":15418,"tles":[{"name":"STARLINK-4513","line1":"1 53548U 22101X   26087.95328822  .00000116  00000+0  25381-4 0  9993","line2":"2 53548  53.2181 337.6445 0001307  87.7480 272.3662 15.08843462199215","category":"Starlink"}]}